0 THORAD DELTA 1 DEB
1 37148U 74089FH  13282.26482723 -.00007892  00000-0 -10110-1 0  6529
2 37148 101.6136 030.4613 0050643 160.9409 230.3257 13.61843209155894
0 THORAD DELTA 1 DEB
1 37148U 74089FH  13282.87132725 -.00006453  00000-0 -82509-2 0  6535
2 37148 101.6135 031.1813 0050336 159.8319 323.4990 13.61854740155989
0 THORAD DELTA 1 DEB
1 37148U 74089FH  13283.58090573 -.00006010  00000-0  00000+0 0  6539
2 37148 101.6172 032.0212 0054294 152.1620 208.2905 13.61843836156083
0 THORAD DELTA 1 DEB
1 37148U 74089FH  13286.61852481 -.00006278  00000-0 -80312-2 0  6556
2 37148 101.6115 035.6306 0049433 152.1586 333.4399 13.61820879156498
0 THORAD DELTA 1 DEB
1 37148U 74089FH  13288.00192083 -.00006741  00000-0 -86333-2 0  6561
2 37148 101.6111 037.2728 0048944 149.5112 275.0022 13.61803566156680
0 THORAD DELTA 1 DEB
1 37148U 74089FH  13288.60038675 -.00005647  00000-0 -72188-2 0  6571
2 37148 101.6111 037.9831 0048911 148.0041 329.0845 13.61804612156766
0 THORAD DELTA 1 DEB
1 37148U 74089FH  13289.98313450 -.00005024  00000-0 -64171-2 0  6583
2 37148 101.6107 039.6239 0047862 145.5893 267.1594 13.61794380156946
0 THORAD DELTA 1 DEB
1 37148U 74089FH  13290.87954031 -.00004617  00000-0 -58906-2 0  6596
2 37148 101.6110 040.6879 0048038 143.2750 341.9619 13.61792250157073
0 THORAD DELTA 1 DEB
1 37148U 74089FH  13292.86307258 -.00004526  00000-0 -57757-2 0  6604
2 37148 101.6117 043.0417 0046952 139.4570 345.2517 13.61783499157344
0 THORAD DELTA 1 DEB
1 37148U 74089FH  13294.84678649 -.00003913  00000-0 -49851-2 0  6615
2 37148 101.6112 045.3969 0046309 135.1489 349.8440 13.61770877157615
